CTC2_L_00126001-01
1 47841U 24262ZH  26070.40843750  .00000000  00000+0  00000-0 0  9995
2 47841  60.0000   0.0000 0000000   0.0000   0.0000 14.42576008    10
CTC2_L_00126001-02
1 47842U 23947SE  26070.40843750  .00000000  00000+0  00000-0 0  9995
2 47842  60.0000   0.0000 0000000   0.0000  90.0000 14.42576008    10
CTC2_L_00126001-03
1 47843U 24655EL  26070.40843750  .00000000  00000+0  00000-0 0  9993
2 47843  60.0000   0.0000 0000000   0.0000 180.0000 14.42576008    11
CTC2_L_00126001-04
1 47844U 26315EG  26070.40843750  .00000000  00000+0  00000-0 0  9999
2 47844  60.0000   0.0000 0000000   0.0000 270.0000 14.42576008    12
CTC2_L_00126002-01
1 47845U 23150SV  26070.40843750  .00000000  00000+0  00000-0 0  9994
2 47845  60.0000  12.0000 0000000   0.0000  12.0000 14.42576008    10
CTC2_L_00126002-02
1 47846U 26284AQ  26070.40843750  .00000000  00000+0  00000-0 0  9996
2 47846  60.0000  12.0000 0000000   0.0000 102.0000 14.42576008    11
CTC2_L_00126002-03
1 47847U 23033UM  26070.40843750  .00000000  00000+0  00000-0 0  9996
2 47847  60.0000  12.0000 0000000   0.0000 192.0000 14.42576008    11
CTC2_L_00126002-04
1 47848U 23139OY  26070.40843750  .00000000  00000+0  00000-0 0  9994
2 47848  60.0000  12.0000 0000000   0.0000 282.0000 14.42576008    12
CTC2_L_00126003-01
1 47849U 22616OA  26070.40843750  .00000000  00000+0  00000-0 0  9994
2 47849  60.0000  24.0000 0000000   0.0000  24.0000 14.42576008    10
CTC2_L_00126003-02
1 47850U 24740BB  26070.40843750  .00000000  00000+0  00000-0 0  9996
2 47850  60.0000  24.0000 0000000   0.0000 114.0000 14.42576008    12
CTC2_L_00126003-03
1 47851U 23410TI  26070.40843750  .00000000  00000+0  00000-0 0  9990
2 47851  60.0000  24.0000 0000000   0.0000 204.0000 14.42576008    13
CTC2_L_00126003-04
1 47852U 25200ZZ  26070.40843750  .00000000  00000+0  00000-0 0  9990
2 47852  60.0000  24.0000 0000000   0.0000 294.0000 14.42576008    13
CTC2_L_00126004-01
1 47853U 24253BQ  26070.40843750  .00000000  00000+0  00000-0 0  9998
2 47853  60.0000  36.0000 0000000   0.0000  36.0000 14.42576008    11
CTC2_L_00126004-02
1 47854U 25933SD  26070.40843750  .00000000  00000+0  00000-0 0  9995
2 47854  60.0000  36.0000 0000000   0.0000 126.0000 14.42576008    12
CTC2_L_00126004-03
1 47855U 26988RI  26070.40843750  .00000000  00000+0  00000-0 0  9997
2 47855  60.0000  36.0000 0000000   0.0000 216.0000 14.42576008    13
CTC2_L_00126004-04
1 47856U 22687QW  26070.40843750  .00000000  00000+0  00000-0 0  9990
2 47856  60.0000  36.0000 0000000   0.0000 306.0000 14.42576008    14
CTC2_L_00126005-01
1 47857U 25308JK  26070.40843750  .00000000  00000+0  00000-0 0  9994
2 47857  60.0000  48.0000 0000000   0.0000  48.0000 14.42576008    11
CTC2_L_00126005-02
1 47858U 26115SL  26070.40843750  .00000000  00000+0  00000-0 0  9992
2 47858  60.0000  48.0000 0000000   0.0000 138.0000 14.42576008    12
CTC2_L_00126005-03
1 47859U 24595VR  26070.40843750  .00000000  00000+0  00000-0 0  9993
2 47859  60.0000  48.0000 0000000   0.0000 228.0000 14.42576008    13
CTC2_L_00126005-04
1 47860U 26878GP  26070.40843750  .00000000  00000+0  00000-0 0  9991
2 47860  60.0000  48.0000 0000000   0.0000 318.0000 14.42576008    15
CTC2_L_00126006-01
1 47861U 25999OF  26070.40843750  .00000000  00000+0  00000-0 0  9995
2 47861  60.0000  60.0000 0000000   0.0000  60.0000 14.42576008    14
CTC2_L_00126006-02
1 47862U 25300IE  26070.40843750  .00000000  00000+0  00000-0 0  9992
2 47862  60.0000  60.0000 0000000   0.0000 150.0000 14.42576008    15
CTC2_L_00126006-03
1 47863U 25163YA  26070.40843750  .00000000  00000+0  00000-0 0  9990
2 47863  60.0000  60.0000 0000000   0.0000 240.0000 14.42576008    16
CTC2_L_00126006-04
1 47864U 26913KO  26070.40843750  .00000000  00000+0  00000-0 0  9995
2 47864  60.0000  60.0000 0000000   0.0000 330.0000 14.42576008    17
CTC2_L_00126007-01
1 47865U 24394PQ  26070.40843750  .00000000  00000+0  00000-0 0  9997
2 47865  60.0000  72.0000 0000000   0.0000  72.0000 14.42576008    14
CTC2_L_00126007-02
1 47866U 24784CI  26070.40843750  .00000000  00000+0  00000-0 0  9991
2 47866  60.0000  72.0000 0000000   0.0000 162.0000 14.42576008    15
CTC2_L_00126007-03
1 47867U 24213FG  26070.40843750  .00000000  00000+0  00000-0 0  9999
2 47867  60.0000  72.0000 0000000   0.0000 252.0000 14.42576008    16
CTC2_L_00126007-04
1 47868U 26310EH  26070.40843750  .00000000  00000+0  00000-0 0  9990
2 47868  60.0000  72.0000 0000000   0.0000 342.0000 14.42576008    17
CTC2_L_00126008-01
1 47869U 24863BP  26070.40843750  .00000000  00000+0  00000-0 0  9992
2 47869  60.0000  84.0000 0000000   0.0000  84.0000 14.42576008    14
CTC2_L_00126008-02
1 47870U 22793OF  26070.40843750  .00000000  00000+0  00000-0 0  9994
2 47870  60.0000  84.0000 0000000   0.0000 174.0000 14.42576008    16
CTC2_L_00126008-03
1 47871U 25861VF  26070.40843750  .00000000  00000+0  00000-0 0  9994
2 47871  60.0000  84.0000 0000000   0.0000 264.0000 14.42576008    17
CTC2_L_00126008-04
1 47872U 23071HX  26070.40843750  .00000000  00000+0  00000-0 0  9996
2 47872  60.0000  84.0000 0000000   0.0000 354.0000 14.42576008    18
CTC2_L_00126009-01
1 47873U 24355NG  26070.40843750  .00000000  00000+0  00000-0 0  9993
2 47873  60.0000  96.0000 0000000   0.0000  96.0000 14.42576008    15
CTC2_L_00126009-02
1 47874U 23234BJ  26070.40843750  .00000000  00000+0  00000-0 0  9999
2 47874  60.0000  96.0000 0000000   0.0000 186.0000 14.42576008    16
CTC2_L_00126009-03
1 47875U 26140FZ  26070.40843750  .00000000  00000+0  00000-0 0  9999
2 47875  60.0000  96.0000 0000000   0.0000 276.0000 14.42576008    17
CTC2_L_00126009-04
1 47876U 23485AA  26070.40843750  .00000000  00000+0  00000-0 0  9999
2 47876  60.0000  96.0000 0000000   0.0000   6.0000 14.42576008    19
CTC2_L_00126010-01
1 47877U 26994CE  26070.40843750  .00000000  00000+0  00000-0 0  9998
2 47877  60.0000 108.0000 0000000   0.0000 108.0000 14.42576008    17
CTC2_L_00126010-02
1 47878U 26524LL  26070.40843750  .00000000  00000+0  00000-0 0  9998
2 47878  60.0000 108.0000 0000000   0.0000 198.0000 14.42576008    17
CTC2_L_00126010-03
1 47879U 26935AD  26070.40843750  .00000000  00000+0  00000-0 0  9995
2 47879  60.0000 108.0000 0000000   0.0000 288.0000 14.42576008    18
CTC2_L_00126010-04
1 47880U 23579SV  26070.40843750  .00000000  00000+0  00000-0 0  9998
2 47880  60.0000 108.0000 0000000   0.0000  18.0000 14.42576008    11
CTC2_L_00126011-01
1 47881U 23954FX  26070.40843750  .00000000  00000+0  00000-0 0  9996
2 47881  60.0000 120.0000 0000000   0.0000 120.0000 14.42576008    10
CTC2_L_00126011-02
1 47882U 24186EY  26070.40843750  .00000000  00000+0  00000-0 0  9995
2 47882  60.0000 120.0000 0000000   0.0000 210.0000 14.42576008    11
CTC2_L_00126011-03
1 47883U 26845KG  26070.40843750  .00000000  00000+0  00000-0 0  9990
2 47883  60.0000 120.0000 0000000   0.0000 300.0000 14.42576008    12
CTC2_L_00126011-04
1 47884U 24059RF  26070.40843750  .00000000  00000+0  00000-0 0  9996
2 47884  60.0000 120.0000 0000000   0.0000  30.0000 14.42576008    13
CTC2_L_00126012-01
1 47885U 26384JY  26070.40843750  .00000000  00000+0  00000-0 0  9990
2 47885  60.0000 132.0000 0000000   0.0000 132.0000 14.42576008    10
CTC2_L_00126012-02
1 47886U 26391WQ  26070.40843750  .00000000  00000+0  00000-0 0  9999
2 47886  60.0000 132.0000 0000000   0.0000 222.0000 14.42576008    11
CTC2_L_00126012-03
1 47887U 22446OT  26070.40843750  .00000000  00000+0  00000-0 0  9997
2 47887  60.0000 132.0000 0000000   0.0000 312.0000 14.42576008    12
CTC2_L_00126012-04
1 47888U 22609QS  26070.40843750  .00000000  00000+0  00000-0 0  9999
2 47888  60.0000 132.0000 0000000   0.0000  42.0000 14.42576008    13
CTC2_L_00126013-01
1 47889U 22902YF  26070.40843750  .00000000  00000+0  00000-0 0  9996
2 47889  60.0000 144.0000 0000000   0.0000 144.0000 14.42576008    10
CTC2_L_00126013-02
1 47890U 25576CV  26070.40843750  .00000000  00000+0  00000-0 0  9998
2 47890  60.0000 144.0000 0000000   0.0000 234.0000 14.42576008    12
CTC2_L_00126013-03
1 47891U 24158XZ  26070.40843750  .00000000  00000+0  00000-0 0  9994
2 47891  60.0000 144.0000 0000000   0.0000 324.0000 14.42576008    13
CTC2_L_00126013-04
1 47892U 22239YW  26070.40843750  .00000000  00000+0  00000-0 0  9993
2 47892  60.0000 144.0000 0000000   0.0000  54.0000 14.42576008    14
CTC2_L_00126014-01
1 47893U 25033BH  26070.40843750  .00000000  00000+0  00000-0 0  9999
2 47893  60.0000 156.0000 0000000   0.0000 156.0000 14.42576008    11
CTC2_L_00126014-02
1 47894U 22364AK  26070.40843750  .00000000  00000+0  00000-0 0  9994
2 47894  60.0000 156.0000 0000000   0.0000 246.0000 14.42576008    12
CTC2_L_00126014-03
1 47895U 24978DR  26070.40843750  .00000000  00000+0  00000-0 0  9998
2 47895  60.0000 156.0000 0000000   0.0000 336.0000 14.42576008    13
CTC2_L_00126014-04
1 47896U 24737XM  26070.40843750  .00000000  00000+0  00000-0 0  9992
2 47896  60.0000 156.0000 0000000   0.0000  66.0000 14.42576008    14
CTC2_L_00126015-01
1 47897U 25402GH  26070.40843750  .00000000  00000+0  00000-0 0  9993
2 47897  60.0000 168.0000 0000000   0.0000 168.0000 14.42576008    11
CTC2_L_00126015-02
1 47898U 26433BR  26070.40843750  .00000000  00000+0  00000-0 0  9999
2 47898  60.0000 168.0000 0000000   0.0000 258.0000 14.42576008    12
CTC2_L_00126015-03
1 47899U 22588MT  26070.40843750  .00000000  00000+0  00000-0 0  9997
2 47899  60.0000 168.0000 0000000   0.0000 348.0000 14.42576008    13
CTC2_L_00126015-04
1 47900U 26321NX  26070.40843750  .00000000  00000+0  00000-0 0  9999
2 47900  60.0000 168.0000 0000000   0.0000  78.0000 14.42576008    16
CTC2_L_00126016-01
1 47901U 23053QP  26070.40843750  .00000000  00000+0  00000-0 0  9999
2 47901  60.0000 180.0000 0000000   0.0000 180.0000 14.42576008    15
CTC2_L_00126016-02
1 47902U 22809RY  26070.40843750  .00000000  00000+0  00000-0 0  9998
2 47902  60.0000 180.0000 0000000   0.0000 270.0000 14.42576008    16
